CCSDS_OMM_VERS = 2.0
CREATION_DATE  = 
ORIGINATOR     = 

OBJECT_NAME    = UNKNOWN
OBJECT_ID      = 
CENTER_NAME    = EARTH
REF_FRAME      = TEME
TIME_SYSTEM    = UTC
MEAN_ELEMENT_THEORY = SGP/SGP4

EPOCH          = 2025-11-17T09:33:33.470784
MEAN_MOTION    = 12.95256261
ECCENTRICITY   = .00296597
INCLINATION    = 90.2370
RA_OF_ASC_NODE = 0.1402
ARG_OF_PERICENTER = 78.0405
MEAN_ANOMALY   = 282.4037

EPHEMERIS_TYPE = 0
CLASSIFICATION_TYPE = U
NORAD_CAT_ID   = 270113
ELEMENT_SET_NO = 999
REV_AT_EPOCH   = 28204
BSTAR          = .20646443E-2
MEAN_MOTION_DOT = .589E-5
MEAN_MOTION_DDOT = 0

CCSDS_OMM_VERS = 2.0
CREATION_DATE  = 
ORIGINATOR     = 

OBJECT_NAME    = UNKNOWN
OBJECT_ID      = 
CENTER_NAME    = EARTH
REF_FRAME      = TEME
TIME_SYSTEM    = UTC
MEAN_ELEMENT_THEORY = SGP/SGP4

EPOCH          = 2025-11-09T10:05:20.901984
MEAN_MOTION    = 12.95756657
ECCENTRICITY   = .00493026
INCLINATION    = 90.2421
RA_OF_ASC_NODE = 3.9388
ARG_OF_PERICENTER = 346.3995
MEAN_ANOMALY   = 13.5793

EPHEMERIS_TYPE = 0
CLASSIFICATION_TYPE = U
NORAD_CAT_ID   = 270114
ELEMENT_SET_NO = 999
REV_AT_EPOCH   = 28159
BSTAR          = .57450687E-3
MEAN_MOTION_DOT = .171E-5
MEAN_MOTION_DDOT = 0

CCSDS_OMM_VERS = 2.0
CREATION_DATE  = 
ORIGINATOR     = 

OBJECT_NAME    = UNKNOWN
OBJECT_ID      = 
CENTER_NAME    = EARTH
REF_FRAME      = TEME
TIME_SYSTEM    = UTC
MEAN_ELEMENT_THEORY = SGP/SGP4

EPOCH          = 2025-11-16T09:50:41.870112
MEAN_MOTION    = 12.97034858
ECCENTRICITY   = .00311162
INCLINATION    = 90.2429
RA_OF_ASC_NODE = 6.0172
ARG_OF_PERICENTER = 291.5107
MEAN_ANOMALY   = 68.2697

EPHEMERIS_TYPE = 0
CLASSIFICATION_TYPE = U
NORAD_CAT_ID   = 270115
ELEMENT_SET_NO = 999
REV_AT_EPOCH   = 28181
BSTAR          = .10477018E-2
MEAN_MOTION_DOT = .31E-5
MEAN_MOTION_DDOT = 0

CCSDS_OMM_VERS = 2.0
CREATION_DATE  = 
ORIGINATOR     = 

OBJECT_NAME    = UNKNOWN
OBJECT_ID      = 
CENTER_NAME    = EARTH
REF_FRAME      = TEME
TIME_SYSTEM    = UTC
MEAN_ELEMENT_THEORY = SGP/SGP4

EPOCH          = 2025-11-11T11:35:21.033312
MEAN_MOTION    = 12.23511451
ECCENTRICITY   = .0133354
INCLINATION    = 74.0099
RA_OF_ASC_NODE = 22.8647
ARG_OF_PERICENTER = 255.8612
MEAN_ANOMALY   = 102.7576

EPHEMERIS_TYPE = 0
CLASSIFICATION_TYPE = U
NORAD_CAT_ID   = 270116
ELEMENT_SET_NO = 999
REV_AT_EPOCH   = 26629
BSTAR          = .7622867E-3
MEAN_MOTION_DOT = .69E-6
MEAN_MOTION_DDOT = 0

CCSDS_OMM_VERS = 2.0
CREATION_DATE  = 
ORIGINATOR     = 

OBJECT_NAME    = UNKNOWN
OBJECT_ID      = 
CENTER_NAME    = EARTH
REF_FRAME      = TEME
TIME_SYSTEM    = UTC
MEAN_ELEMENT_THEORY = SGP/SGP4

EPOCH          = 2025-11-17T08:44:11.140512
MEAN_MOTION    = 13.00226792
ECCENTRICITY   = .00282425
INCLINATION    = 90.2348
RA_OF_ASC_NODE = 356.4533
ARG_OF_PERICENTER = 69.2005
MEAN_ANOMALY   = 291.2139

EPHEMERIS_TYPE = 0
CLASSIFICATION_TYPE = U
NORAD_CAT_ID   = 270117
ELEMENT_SET_NO = 999
REV_AT_EPOCH   = 28323
BSTAR          = -.11258771E-2
MEAN_MOTION_DOT = -.333E-5
MEAN_MOTION_DDOT = 0

CCSDS_OMM_VERS = 2.0
CREATION_DATE  = 
ORIGINATOR     = 

OBJECT_NAME    = UNKNOWN
OBJECT_ID      = 
CENTER_NAME    = EARTH
REF_FRAME      = TEME
TIME_SYSTEM    = UTC
MEAN_ELEMENT_THEORY = SGP/SGP4

EPOCH          = 2025-11-16T11:35:17.551392
MEAN_MOTION    = 12.37771840
ECCENTRICITY   = .01283593
INCLINATION    = 47.2343
RA_OF_ASC_NODE = 252.0269
ARG_OF_PERICENTER = 256.0911
MEAN_ANOMALY   = 102.5580

EPHEMERIS_TYPE = 0
CLASSIFICATION_TYPE = U
NORAD_CAT_ID   = 270120
ELEMENT_SET_NO = 999
REV_AT_EPOCH   = 26974
BSTAR          = .34793057E-1
MEAN_MOTION_DOT = .4566E-4
MEAN_MOTION_DDOT = 0

CCSDS_OMM_VERS = 2.0
CREATION_DATE  = 
ORIGINATOR     = 

OBJECT_NAME    = UNKNOWN
OBJECT_ID      = 
CENTER_NAME    = EARTH
REF_FRAME      = TEME
TIME_SYSTEM    = UTC
MEAN_ELEMENT_THEORY = SGP/SGP4

EPOCH          = 2025-11-15T04:44:50.966304
MEAN_MOTION    = 14.54899056
ECCENTRICITY   = .00058663
INCLINATION    = 98.6858
RA_OF_ASC_NODE = 124.9637
ARG_OF_PERICENTER = 47.3897
MEAN_ANOMALY   = 312.7793

EPHEMERIS_TYPE = 0
CLASSIFICATION_TYPE = U
NORAD_CAT_ID   = 270121
ELEMENT_SET_NO = 999
REV_AT_EPOCH   = 31575
BSTAR          = .88170943E-3
MEAN_MOTION_DOT = .3742E-4
MEAN_MOTION_DDOT = 0

CCSDS_OMM_VERS = 2.0
CREATION_DATE  = 
ORIGINATOR     = 

OBJECT_NAME    = UNKNOWN
OBJECT_ID      = 
CENTER_NAME    = EARTH
REF_FRAME      = TEME
TIME_SYSTEM    = UTC
MEAN_ELEMENT_THEORY = SGP/SGP4

EPOCH          = 2025-11-17T09:42:24.745248
MEAN_MOTION    = 12.96232476
ECCENTRICITY   = .00279756
INCLINATION    = 90.2443
RA_OF_ASC_NODE = 7.1363
ARG_OF_PERICENTER = 13.0858
MEAN_ANOMALY   = 347.0981

EPHEMERIS_TYPE = 0
CLASSIFICATION_TYPE = U
NORAD_CAT_ID   = 270122
ELEMENT_SET_NO = 999
REV_AT_EPOCH   = 28193
BSTAR          = .10231307E-2
MEAN_MOTION_DOT = .3E-5
MEAN_MOTION_DDOT = 0

CCSDS_OMM_VERS = 2.0
CREATION_DATE  = 
ORIGINATOR     = 

OBJECT_NAME    = UNKNOWN
OBJECT_ID      = 
CENTER_NAME    = EARTH
REF_FRAME      = TEME
TIME_SYSTEM    = UTC
MEAN_ELEMENT_THEORY = SGP/SGP4

EPOCH          = 2025-11-16T20:42:08.487936
MEAN_MOTION    = 12.23576009
ECCENTRICITY   = .08150404
INCLINATION    = 83.2705
RA_OF_ASC_NODE = 16.1156
ARG_OF_PERICENTER = 231.8304
MEAN_ANOMALY   = 120.6612

EPHEMERIS_TYPE = 0
CLASSIFICATION_TYPE = U
NORAD_CAT_ID   = 270123
ELEMENT_SET_NO = 999
REV_AT_EPOCH   = 26636
BSTAR          = .7192647E-2
MEAN_MOTION_DOT = .2299E-4
MEAN_MOTION_DDOT = 0

CCSDS_OMM_VERS = 2.0
CREATION_DATE  = 
ORIGINATOR     = 

OBJECT_NAME    = UNKNOWN
OBJECT_ID      = 
CENTER_NAME    = EARTH
REF_FRAME      = TEME
TIME_SYSTEM    = UTC
MEAN_ELEMENT_THEORY = SGP/SGP4

EPOCH          = 2025-11-12T21:09:05.135616
MEAN_MOTION    = 12.96850981
ECCENTRICITY   = .00254869
INCLINATION    = 90.2459
RA_OF_ASC_NODE = 8.3933
ARG_OF_PERICENTER = 239.6186
MEAN_ANOMALY   = 120.2414

EPHEMERIS_TYPE = 0
CLASSIFICATION_TYPE = U
NORAD_CAT_ID   = 270124
ELEMENT_SET_NO = 999
REV_AT_EPOCH   = 28224
BSTAR          = -.17170414E-3
MEAN_MOTION_DOT = -.42E-6
MEAN_MOTION_DDOT = 0

CCSDS_OMM_VERS = 2.0
CREATION_DATE  = 
ORIGINATOR     = 

OBJECT_NAME    = UNKNOWN
OBJECT_ID      = 
CENTER_NAME    = EARTH
REF_FRAME      = TEME
TIME_SYSTEM    = UTC
MEAN_ELEMENT_THEORY = SGP/SGP4

EPOCH          = 2025-11-15T08:33:41.629248
MEAN_MOTION    = 14.74111430
ECCENTRICITY   = .0015556
INCLINATION    = 86.3289
RA_OF_ASC_NODE = 348.6092
ARG_OF_PERICENTER = 358.0529
MEAN_ANOMALY   = 2.0626

EPHEMERIS_TYPE = 0
CLASSIFICATION_TYPE = U
NORAD_CAT_ID   = 270127
ELEMENT_SET_NO = 999
REV_AT_EPOCH   = 31668
BSTAR          = .17579143E-2
MEAN_MOTION_DOT = .11634E-3
MEAN_MOTION_DDOT = 0

CCSDS_OMM_VERS = 2.0
CREATION_DATE  = 
ORIGINATOR     = 

OBJECT_NAME    = UNKNOWN
OBJECT_ID      = 
CENTER_NAME    = EARTH
REF_FRAME      = TEME
TIME_SYSTEM    = UTC
MEAN_ELEMENT_THEORY = SGP/SGP4

EPOCH          = 2025-11-02T06:43:50.383200
MEAN_MOTION    = 12.33800451
ECCENTRICITY   = .00467032
INCLINATION    = 102.4345
RA_OF_ASC_NODE = 306.6193
ARG_OF_PERICENTER = 312.7756
MEAN_ANOMALY   = 46.9379

EPHEMERIS_TYPE = 0
CLASSIFICATION_TYPE = U
NORAD_CAT_ID   = 270128
ELEMENT_SET_NO = 999
REV_AT_EPOCH   = 26724
BSTAR          = .57992857E-3
MEAN_MOTION_DOT = .25E-6
MEAN_MOTION_DDOT = 0

CCSDS_OMM_VERS = 2.0
CREATION_DATE  = 
ORIGINATOR     = 

OBJECT_NAME    = UNKNOWN
OBJECT_ID      = 
CENTER_NAME    = EARTH
REF_FRAME      = TEME
TIME_SYSTEM    = UTC
MEAN_ELEMENT_THEORY = SGP/SGP4

EPOCH          = 2025-11-15T20:24:20.050848
MEAN_MOTION    = 12.98622842
ECCENTRICITY   = .00269
INCLINATION    = 90.2395
RA_OF_ASC_NODE = 3.8528
ARG_OF_PERICENTER = 275.9073
MEAN_ANOMALY   = 83.8982

EPHEMERIS_TYPE = 0
CLASSIFICATION_TYPE = U
NORAD_CAT_ID   = 270129
ELEMENT_SET_NO = 999
REV_AT_EPOCH   = 28222
BSTAR          = -.25162533E-2
MEAN_MOTION_DOT = -.736E-5
MEAN_MOTION_DDOT = 0

CCSDS_OMM_VERS = 2.0
CREATION_DATE  = 
ORIGINATOR     = 

OBJECT_NAME    = UNKNOWN
OBJECT_ID      = 
CENTER_NAME    = EARTH
REF_FRAME      = TEME
TIME_SYSTEM    = UTC
MEAN_ELEMENT_THEORY = SGP/SGP4

EPOCH          = 2025-11-17T15:25:40.023840
MEAN_MOTION    = 14.91378462
ECCENTRICITY   = .00174668
INCLINATION    = 99.1811
RA_OF_ASC_NODE = 97.4559
ARG_OF_PERICENTER = 287.8799
MEAN_ANOMALY   = 72.0510

EPHEMERIS_TYPE = 0
CLASSIFICATION_TYPE = U
NORAD_CAT_ID   = 270130
ELEMENT_SET_NO = 999
REV_AT_EPOCH   = 31160
BSTAR          = .13589721E-1
MEAN_MOTION_DOT = .138622E-2
MEAN_MOTION_DDOT = 0

CCSDS_OMM_VERS = 2.0
CREATION_DATE  = 
ORIGINATOR     = 

OBJECT_NAME    = UNKNOWN
OBJECT_ID      = 
CENTER_NAME    = EARTH
REF_FRAME      = TEME
TIME_SYSTEM    = UTC
MEAN_ELEMENT_THEORY = SGP/SGP4

EPOCH          = 2025-11-15T12:31:24.347712
MEAN_MOTION    = 4.52466520
ECCENTRICITY   = .54299176
INCLINATION    = 63.1223
RA_OF_ASC_NODE = 164.4742
ARG_OF_PERICENTER = 347.3300
MEAN_ANOMALY   = 3.2496

EPHEMERIS_TYPE = 0
CLASSIFICATION_TYPE = U
NORAD_CAT_ID   = 270131
ELEMENT_SET_NO = 999
REV_AT_EPOCH   = 9868
BSTAR          = .10602214E-2
MEAN_MOTION_DOT = .185E-5
MEAN_MOTION_DDOT = 0

CCSDS_OMM_VERS = 2.0
CREATION_DATE  = 
ORIGINATOR     = 

OBJECT_NAME    = UNKNOWN
OBJECT_ID      = 
CENTER_NAME    = EARTH
REF_FRAME      = TEME
TIME_SYSTEM    = UTC
MEAN_ELEMENT_THEORY = SGP/SGP4

EPOCH          = 2025-11-17T04:23:14.879040
MEAN_MOTION    = 12.79532463
ECCENTRICITY   = .03858992
INCLINATION    = 63.2023
RA_OF_ASC_NODE = 140.6019
ARG_OF_PERICENTER = 17.8148
MEAN_ANOMALY   = 343.5949

EPHEMERIS_TYPE = 0
CLASSIFICATION_TYPE = U
NORAD_CAT_ID   = 270133
ELEMENT_SET_NO = 999
REV_AT_EPOCH   = 27912
BSTAR          = .21520669E-2
MEAN_MOTION_DOT = .589E-5
MEAN_MOTION_DDOT = 0

